[{"OBJECT_NAME":"GHGSAT-C5","OBJECT_ID":"2022-057N","EPOCH":"2026-03-09T21:50:12.501024","MEAN_MOTION":15.32921902,"ECCENTRICITY":0.00082696,"INCLINATION":97.6522,"RA_OF_ASC_NODE":212.4963,"ARG_OF_PERICENTER":109.8004,"MEAN_ANOMALY":250.413,"EPHEMERIS_TYPE":0,"CLASSIFICATION_TYPE":"U","NORAD_CAT_ID":52744,"ELEMENT_SET_NO":999,"REV_AT_EPOCH":21032,"BSTAR":0.00029214604,"MEAN_MOTION_DOT":9.218e-5,"MEAN_MOTION_DDOT":0},{"OBJECT_NAME":"STARLINK-35413","OBJECT_ID":"2025-224E","EPOCH":"2026-03-09T03:23:12.263424","MEAN_MOTION":15.3021501,"ECCENTRICITY":8.989e-5,"INCLINATION":53.1598,"RA_OF_ASC_NODE":13.6647,"ARG_OF_PERICENTER":98.4319,"MEAN_ANOMALY":261.6784,"EPHEMERIS_TYPE":0,"CLASSIFICATION_TYPE":"U","NORAD_CAT_ID":65886,"ELEMENT_SET_NO":999,"REV_AT_EPOCH":2469,"BSTAR":0.0013363724,"MEAN_MOTION_DOT":0.00039449,"MEAN_MOTION_DDOT":0}]
